[
    {
        "Altitude(m)": 554015.3215753265,
        "Argument of Periapsis(deg)": 0.006622991110713501,
        "Eccentricity": 0.0,
        "Inclination(deg)": 53.0,
        "Latitude(deg)": 22.287979974837913,
        "Longitude(deg)": -2.8836913885478364,
        "Mean Anomaly(deg)": 28.273392867577584,
        "RAAN(deg)": 79.99014336852801,
        "Satellite Name": "Starlink Shell 1 353",
        "Satellite Number": 353,
        "Semi-Major Axis(m)": 6931778.249405717,
        "Time(s)": 190
    },
    {
        "Altitude(m)": 554064.9833598936,
        "Argument of Periapsis(deg)": 0.0069715695902247375,
        "Eccentricity": 0.0,
        "Inclination(deg)": 53.0,
        "Latitude(deg)": 22.76645389582798,
        "Longitude(deg)": -2.4838115158611016,
        "Mean Anomaly(deg)": 28.900224071134303,
        "RAAN(deg)": 79.98962459845053,
        "Satellite Name": "Starlink Shell 1 353",
        "Satellite Number": 353,
        "Semi-Major Axis(m)": 6931778.249405717,
        "Time(s)": 200
    },
    {
        "Altitude(m)": 554116.4824022052,
        "Argument of Periapsis(deg)": 0.007320148069735974,
        "Eccentricity": 0.0,
        "Inclination(deg)": 53.0,
        "Latitude(deg)": 23.243673219842634,
        "Longitude(deg)": -2.0808516962786934,
        "Mean Anomaly(deg)": 29.527055274691026,
        "RAAN(deg)": 79.98910582837307,
        "Satellite Name": "Starlink Shell 1 353",
        "Satellite Number": 353,
        "Semi-Major Axis(m)": 6931778.249405717,
        "Time(s)": 210
    },
    {
        "Altitude(m)": 554169.7731934686,
        "Argument of Periapsis(deg)": 0.007668726549247212,
        "Eccentricity": 0.0,
        "Inclination(deg)": 53.0,
        "Latitude(deg)": 23.71960000545507,
        "Longitude(deg)": -1.6747261901906731,
        "Mean Anomaly(deg)": 30.153886478247735,
        "RAAN(deg)": 79.9885870582956,
        "Satellite Name": "Starlink Shell 1 353",
        "Satellite Number": 353,
        "Semi-Major Axis(m)": 6931778.249405717,
        "Time(s)": 220
    },
    {
        "Altitude(m)": 554224.8094939616,
        "Argument of Periapsis(deg)": 0.00801730502875845,
        "Eccentricity": 0.0,
        "Inclination(deg)": 53.0,
        "Latitude(deg)": 24.194195555416,
        "Longitude(deg)": -1.2653480508432953,
        "Mean Anomaly(deg)": 30.780717681804443,
        "RAAN(deg)": 79.98806828821812,
        "Satellite Name": "Starlink Shell 1 353",
        "Satellite Number": 353,
        "Semi-Major Axis(m)": 6931778.249405717,
        "Time(s)": 230
    },
    {
        "Altitude(m)": 554281.5443582211,
        "Argument of Periapsis(deg)": 0.008365883508269684,
        "Eccentricity": 0.0,
        "Inclination(deg)": 53.0,
        "Latitude(deg)": 24.667420391691646,
        "Longitude(deg)": -0.852628601079877,
        "Mean Anomaly(deg)": 31.407548885361166,
        "RAAN(deg)": 79.98754951814065,
        "Satellite Name": "Starlink Shell 1 353",
        "Satellite Number": 353,
        "Semi-Major Axis(m)": 6931778.249405717,
        "Time(s)": 240
    },
    {
        "Altitude(m)": 554339.9301605448,
        "Argument of Periapsis(deg)": 0.008714461987780921,
        "Eccentricity": 0.0,
        "Inclination(deg)": 53.0,
        "Latitude(deg)": 25.139234229969617,
        "Longitude(deg)": -0.4364784241825391,
        "Mean Anomaly(deg)": 32.03438008891787,
        "RAAN(deg)": 79.98703074806318,
        "Satellite Name": "Starlink Shell 1 353",
        "Satellite Number": 353,
        "Semi-Major Axis(m)": 6931778.249405717,
        "Time(s)": 250
    },
    {
        "Altitude(m)": 554399.918620777,
        "Argument of Periapsis(deg)": 0.009063040467292158,
        "Eccentricity": 0.0,
        "Inclination(deg)": 53.0,
        "Latitude(deg)": 25.609595953636,
        "Longitude(deg)": -0.016806843202239113,
        "Mean Anomaly(deg)": 32.661211292474604,
        "RAAN(deg)": 79.9865119779857,
        "Satellite Name": "Starlink Shell 1 353",
        "Satellite Number": 353,
        "Semi-Major Axis(m)": 6931778.249405717,
        "Time(s)": 260
    },
    {
        "Altitude(m)": 554461.4608303919,
        "Argument of Periapsis(deg)": 0.009411618946803396,
        "Eccentricity": 0.0,
        "Inclination(deg)": 53.0,
        "Latitude(deg)": 26.07846358722091,
        "Longitude(deg)": 0.4064785982053594,
        "Mean Anomaly(deg)": 33.2880424960313,
        "RAAN(deg)": 79.98599320790824,
        "Satellite Name": "Starlink Shell 1 353",
        "Satellite Number": 353,
        "Semi-Major Axis(m)": 6931778.249405717,
        "Time(s)": 270
    },
    {
        "Altitude(m)": 554524.50727885,
        "Argument of Periapsis(deg)": 0.009760197426314633,
        "Eccentricity": 0.0,
        "Inclination(deg)": 53.0,
        "Latitude(deg)": 26.545794269311884,
        "Longitude(deg)": 0.8334711404107932,
        "Mean Anomaly(deg)": 33.914873699588014,
        "RAAN(deg)": 79.98547443783076,
        "Satellite Name": "Starlink Shell 1 353",
        "Satellite Number": 353,
        "Semi-Major Axis(m)": 6931778.249405717,
        "Time(s)": 280
    },
    {
        "Altitude(m)": 554589.007880219,
        "Argument of Periapsis(deg)": 0.01010877590582587,
        "Eccentricity": 0.0,
        "Inclination(deg)": 53.0,
        "Latitude(deg)": 27.01154422494357,
        "Longitude(deg)": 1.2642653234876997,
        "Mean Anomaly(deg)": 34.54170490314473,
        "RAAN(deg)": 79.98495566775328,
        "Satellite Name": "Starlink Shell 1 353",
        "Satellite Number": 353,
        "Semi-Major Axis(m)": 6931778.249405717,
        "Time(s)": 290
    },
    {
        "Altitude(m)": 554654.9120000319,
        "Argument of Periapsis(deg)": 0.010457354385337106,
        "Eccentricity": 0.0,
        "Inclination(deg)": 53.0,
        "Latitude(deg)": 27.47566873746726,
        "Longitude(deg)": 1.698957500884012,
        "Mean Anomaly(deg)": 35.16853610670145,
        "RAAN(deg)": 79.98443689767582,
        "Satellite Name": "Starlink Shell 1 353",
        "Satellite Number": 353,
        "Semi-Major Axis(m)": 6931778.249405717,
        "Time(s)": 300
    },
    {
        "Altitude(m)": 554722.168482379,
        "Argument of Periapsis(deg)": 0.010805932864848343,
        "Eccentricity": 0.0,
        "Inclination(deg)": 53.0,
        "Latitude(deg)": 27.93812211990539,
        "Longitude(deg)": 2.137644838023014,
        "Mean Anomaly(deg)": 35.795367310258165,
        "RAAN(deg)": 79.98391812759834,
        "Satellite Name": "Starlink Shell 1 353",
        "Satellite Number": 353,
        "Semi-Major Axis(m)": 6931778.249405717,
        "Time(s)": 310
    },
    {
        "Altitude(m)": 554790.7256772175,
        "Argument of Periapsis(deg)": 0.01115451134435958,
        "Eccentricity": 0.0,
        "Inclination(deg)": 53.0,
        "Latitude(deg)": 28.398857685807762,
        "Longitude(deg)": 2.5804258213756546,
        "Mean Anomaly(deg)": 36.4221985138149,
        "RAAN(deg)": 79.98339935752087,
        "Satellite Name": "Starlink Shell 1 353",
        "Satellite Number": 353,
        "Semi-Major Axis(m)": 6931778.249405717,
        "Time(s)": 320
    },
    {
        "Altitude(m)": 554860.5314678982,
        "Argument of Periapsis(deg)": 0.011503089823870818,
        "Eccentricity": 0.0,
        "Inclination(deg)": 53.0,
        "Latitude(deg)": 28.857827719619582,
        "Longitude(deg)": 3.0274007649108428,
        "Mean Anomaly(deg)": 37.04902971737162,
        "RAAN(deg)": 79.9828805874434,
        "Satellite Name": "Starlink Shell 1 353",
        "Satellite Number": 353,
        "Semi-Major Axis(m)": 6931778.249405717,
        "Time(s)": 330
    },
    {
        "Altitude(m)": 554931.5332988553,
        "Argument of Periapsis(deg)": 0.011851668303382053,
        "Eccentricity": 0.0,
        "Inclination(deg)": 53.0,
        "Latitude(deg)": 29.314983446576345,
        "Longitude(deg)": 3.4786708008182967,
        "Mean Anomaly(deg)": 37.67586092092833,
        "RAAN(deg)": 79.98236181736593,
        "Satellite Name": "Starlink Shell 1 353",
        "Satellite Number": 353,
        "Semi-Major Axis(m)": 6931778.249405717,
        "Time(s)": 340
    },
    {
        "Altitude(m)": 555003.6782034985,
        "Argument of Periapsis(deg)": 0.012200246782893292,
        "Eccentricity": 0.0,
        "Inclination(deg)": 53.0,
        "Latitude(deg)": 29.770275002150385,
        "Longitude(deg)": 3.934338379999177,
        "Mean Anomaly(deg)": 38.302692124485034,
        "RAAN(deg)": 79.98184304728845,
        "Satellite Name": "Starlink Shell 1 353",
        "Satellite Number": 353,
        "Semi-Major Axis(m)": 6931778.249405717,
        "Time(s)": 350
    },
    {
        "Altitude(m)": 555076.9128322295,
        "Argument of Periapsis(deg)": 0.012548825262404526,
        "Eccentricity": 0.0,
        "Inclination(deg)": 53.0,
        "Latitude(deg)": 30.223651401070953,
        "Longitude(deg)": 4.394507769186519,
        "Mean Anomaly(deg)": 38.929523328041725,
        "RAAN(deg)": 79.98132427721099,
        "Satellite Name": "Starlink Shell 1 353",
        "Satellite Number": 353,
        "Semi-Major Axis(m)": 6931778.249405717,
        "Time(s)": 360
    },
    {
        "Altitude(m)": 555151.1834806503,
        "Argument of Periapsis(deg)": 0.012897403741915765,
        "Eccentricity": 0.0,
        "Inclination(deg)": 53.0,
        "Latitude(deg)": 30.675060505942756,
        "Longitude(deg)": 4.859284031539582,
        "Mean Anomaly(deg)": 39.55635453159846,
        "RAAN(deg)": 79.98080550713351,
        "Satellite Name": "Starlink Shell 1 353",
        "Satellite Number": 353,
        "Semi-Major Axis(m)": 6931778.249405717,
        "Time(s)": 370
    }
]